{
    "links": {
        "self": "http://www.neowsapp.com/rest/v1/neo/3388401?api_key=iIulBulltgU6a56xZRHN4H3l9WmuAYTsLGpBGhQ2"
    },
    "id": "3388401",
    "neo_reference_id": "3388401",
    "name": "(2007 TZ68)",
    "designation": "2007 TZ68",
    "nasa_jpl_url": "http://ssd.jpl.nasa.gov/sbdb.cgi?sstr=3388401",
    "absolute_magnitude_h": 28.3,
    "estimated_diameter": {
        "kilometers": {
            "estimated_diameter_min": 0.0058150704,
            "estimated_diameter_max": 0.0130028927
        },
        "meters": {
            "estimated_diameter_min": 5.8150703965,
            "estimated_diameter_max": 13.0028927004
        },
        "miles": {
            "estimated_diameter_min": 0.0036133161,
            "estimated_diameter_max": 0.0080796204
        },
        "feet": {
            "estimated_diameter_min": 19.0783155595,
            "estimated_diameter_max": 42.6604104873
        }
    },
    "is_potentially_hazardous_asteroid": false,
    "close_approach_data": [
        {
            "close_approach_date": "1931-09-08",
            "close_approach_date_full": "1931-Sep-08 22:22",
            "epoch_date_close_approach": -1209087480000,
            "relative_velocity": {
                "kilometers_per_second": "21.8643790632",
                "kilometers_per_hour": "78711.7646275672",
                "miles_per_hour": "48908.4295265014"
            },
            "miss_distance": {
                "astronomical": "0.485811804",
                "lunar": "188.980791756",
                "kilometers": "72676411.09925748",
                "miles": "45159027.805134024"
            },
            "orbiting_body": "Earth"
        },
        {
            "close_approach_date": "2005-06-29",
            "close_approach_date_full": "2005-Jun-29 15:48",
            "epoch_date_close_approach": 1120060080000,
            "relative_velocity": {
                "kilometers_per_second": "11.198224737",
                "kilometers_per_hour": "40313.6090531028",
                "miles_per_hour": "25049.3089141349"
            },
            "miss_distance": {
                "astronomical": "0.0599021127",
                "lunar": "23.3019218403",
                "kilometers": "8961228.468419949",
                "miles": "5568249.1671313362"
            },
            "orbiting_body": "Mars"
        },
        {
            "close_approach_date": "2007-10-17",
            "close_approach_date_full": "2007-Oct-17 17:04",
            "epoch_date_close_approach": 1192640640000,
            "relative_velocity": {
                "kilometers_per_second": "7.7902363483",
                "kilometers_per_hour": "28044.850853868",
                "miles_per_hour": "17425.9796875048"
            },
            "miss_distance": {
                "astronomical": "0.0134204094",
                "lunar": "5.2205392566",
                "kilometers": "2007664.660767978",
                "miles": "1247504.9726269764"
            },
            "orbiting_body": "Earth"
        },
        {
            "close_approach_date": "2010-01-22",
            "close_approach_date_full": "2010-Jan-22 22:26",
            "epoch_date_close_approach": 1264199160000,
            "relative_velocity": {
                "kilometers_per_second": "20.0188583794",
                "kilometers_per_hour": "72067.8901658774",
                "miles_per_hour": "44780.1843089031"
            },
            "miss_distance": {
                "astronomical": "0.4276906559",
                "lunar": "166.3716651451",
                "kilometers": "63981611.141542933",
                "miles": "39756329.6378531554"
            },
            "orbiting_body": "Earth"
        },
        {
            "close_approach_date": "2010-05-13",
            "close_approach_date_full": "2010-May-13 03:54",
            "epoch_date_close_approach": 1273722840000,
            "relative_velocity": {
                "kilometers_per_second": "10.6758944768",
                "kilometers_per_hour": "38433.2201166568",
                "miles_per_hour": "23880.9083552638"
            },
            "miss_distance": {
                "astronomical": "0.0196653681",
                "lunar": "7.6498281909",
                "kilometers": "2941897.180525947",
                "miles": "1828010.1420221886"
            },
            "orbiting_body": "Mars"
        }
    ],
    "orbital_data": {
        "orbit_id": "6",
        "orbit_determination_date": "2017-04-06 09:05:39",
        "first_observation_date": "2007-10-13",
        "last_observation_date": "2007-10-14",
        "data_arc_in_days": 1,
        "observations_used": 14,
        "orbit_uncertainty": "8",
        "minimum_orbit_intersection": ".00823699",
        "jupiter_tisserand_invariant": "4.176",
        "epoch_osculation": "2454387.5",
        "eccentricity": ".4205016822967794",
        "semi_major_axis": "1.647763356484743",
        "inclination": "4.403435466861909",
        "ascending_node_longitude": "20.86789474809234",
        "orbital_period": "772.5750663013171",
        "perihelion_distance": ".9548760930559208",
        "perihelion_argument": "37.41280491792435",
        "aphelion_distance": "2.340650619913565",
        "perihelion_time": "2454419.116445663471",
        "mean_anomaly": "345.2675540082594",
        "mean_motion": ".4659741372750879",
        "equinox": "J2000",
        "orbit_class": {
            "orbit_class_type": "APO",
            "orbit_class_description": "Near-Earth asteroid orbits which cross the Earth’s orbit similar to that of 1862 Apollo",
            "orbit_class_range": "a (semi-major axis) > 1.0 AU; q (perihelion) < 1.017 AU"
        }
    },
    "is_sentry_object": false
}